CSS (TIANHE)            
1 48274U 21035A   24191.72302182  .00029185  00000+0  30553-3 0  9991
2 48274  41.4691 305.5523 0004104   3.1161 356.9704 15.63766044182621
